NORAD_CAT_ID,OBJECT_NAME,OBJECT_TYPE,EPOCH,MEAN_MOTION,ECCENTRICITY,INCLINATION,RA_OF_ASC_NODE,ARG_OF_PERICENTER,MEAN_ANOMALY,BSTAR,MEAN_MOTION_DOT,MEAN_MOTION_DDOT,TLE_LINE0,TLE_LINE1,TLE_LINE2,SEMIMAJOR_AXIS,PERIOD,APOGEE,PERIGEE,DECAYED
52874.0,STARLINK-4210,PAYLOAD,2022-10-01 22:00:00,15.088285999999998,0.0001761999999999,53.2129,247.0137,52.7329,317.9511,0.00057836,8.926e-05,0.0,0 STARLINK-4210,1 52874U 22062AW  22274.91667824  .00008926  00000-0  57836-3 0  9995,2 52874  53.2129 247.0137 0001762  52.7329 317.9511 15.08828600  1307,6917.915,95.438,540.999,538.561,0.0
52874.0,STARLINK-4210,PAYLOAD,2022-10-02 06:00:00,15.08823607,0.0001928,53.2128,245.5191,46.8166,335.4549,0.00088022,0.00013742,0.0,0 STARLINK-4210,1 52874U 22062AW  22275.25001157  .00013742  00000-0  88022-3 0  9997,2 52874  53.2128 245.5191 0001928  46.8166 335.4549 15.08823607 17176,6917.93,95.439,541.129,538.462,0.0
52874.0,STARLINK-4210,PAYLOAD,2022-10-02 14:00:01,15.088661300000002,0.0001817,53.2126,244.0216,45.8315,348.0205,-0.0041938,-0.00066466,0.0,0 STARLINK-4210,1 52874U 22062AW  22275.58334491 -.00066466  00000-0 -41938-2 0  9990,2 52874  53.2126 244.0216 0001817  45.8315 348.0205 15.08866130  1303,6917.801,95.436,540.922,538.409,0.0
52874.0,STARLINK-4210,PAYLOAD,2022-10-02 22:00:00,15.08824813,0.0001720999999999,53.2128,242.5244,50.9044,354.547,0.0023344,0.00037044,0.0,0 STARLINK-4210,1 52874U 22062AW  22275.91667824  .00037044  00000-0  23344-2 0  9995,2 52874  53.2128 242.5244 0001721  50.9044 354.5470 15.08824813  1307,6917.927,95.439,540.982,538.601,0.0
52874.0,STARLINK-4210,PAYLOAD,2022-10-03 14:00:01,15.08878423,0.0001771999999999,53.2128,239.5321,45.7653,22.8872,-0.0031331999999999,-0.00049861,0.0,0 STARLINK-4210,1 52874U 22062AW  22276.58334491 -.00049861  00000-0 -31332-2 0  9998,2 52874  53.2128 239.5321 0001772  45.7653  22.8872 15.08878423  1300,6917.763000000001,95.435,540.854,538.4019999999998,0.0
52874.0,STARLINK-4210,PAYLOAD,2022-10-03 22:00:00,15.08855128,0.000175,53.213,238.0349,50.9928,29.2712,-0.0010006,-0.00016184,0.0,0 STARLINK-4210,1 52874U 22062AW  22276.91667824 -.00016184  00000-0 -10006-2 0  9991,2 52874  53.2130 238.0349 0001750  50.9928  29.2712 15.08855128  1307,6917.834,95.437,540.91,538.489,0.0
52874.0,STARLINK-4210,PAYLOAD,2022-10-04 06:00:00,15.0884635,0.0001915,53.213,236.5402,46.1035,45.7728,-0.00051851,-8.532e-05,0.0,0 STARLINK-4210,1 52874U 22062AW  22277.25001157 -.00008532  00000-0 -51851-3 0  9992,2 52874  53.2130 236.5402 0001915  46.1035  45.7728 15.08846350 17471,6917.861,95.437,541.0509999999998,538.401,0.0
52874.0,STARLINK-4210,PAYLOAD,2022-10-04 14:00:01,15.08846217,0.0001704,53.2131,235.0425,45.7563,57.7215,-0.0025835,-0.00041177,0.0,0 STARLINK-4210,1 52874U 22062AW  22277.58334491 -.00041177  00000-0 -25835-2 0  9992,2 52874  53.2131 235.0425 0001704  45.7563  57.7215 15.08846217  1309,6917.861,95.437,540.905,538.548,0.0
52874.0,STARLINK-4210,PAYLOAD,2022-10-04 22:00:00,15.08827541,0.0001617,53.2133,233.5455,48.947,66.1073,0.0015104,0.00023824,0.0,0 STARLINK-4210,1 52874U 22062AW  22277.91667824  .00023824  00000-0  15104-2 0  9993,2 52874  53.2133 233.5455 0001617  48.9470  66.1073 15.08827541  1307,6917.918000000002,95.438,540.9019999999998,538.665,0.0
52874.0,STARLINK-4210,PAYLOAD,2022-10-05 08:00:01,15.0882,0.0001771999999999,53.2132,231.6767,41.4246,178.1283,0.00062199,9.619e-05,0.0,0 STARLINK-4210,1 52874U 22062AW  22278.33334491  .00009619  00000-0  62199-3 0  9994,2 52874  53.2132 231.6767 0001772  41.4246 178.1283 15.08820000 17646,6917.941999999999,95.439,541.0319999999998,538.581,0.0
52874.0,STARLINK-4210,PAYLOAD,2022-10-05 14:00:01,15.08825885,0.0001656,53.2134,230.5529,46.5048,91.7966,-0.00091385,-0.00014797,0.0,0 STARLINK-4210,1 52874U 22062AW  22278.58335648 -.00014797  00000-0 -91385-3 0  9990,2 52874  53.2134 230.5529 0001656  46.5048  91.7966 15.08825885  1309,6917.924,95.438,540.934,538.643,0.0
52874.0,STARLINK-4210,PAYLOAD,2022-10-05 22:00:00,15.0882016,0.0001688,53.2137,229.0561,53.1747,96.628,-0.00063016,-0.00010298,0.0,0 STARLINK-4210,1 52874U 22062AW  22278.91667824 -.00010298  00000-0 -63016-3 0  9993,2 52874  53.2137 229.0561 0001688  53.1747  96.6280 15.08820160  1300,6917.941,95.439,540.974,538.638,0.0
52874.0,STARLINK-4210,PAYLOAD,2022-10-06 06:00:00,15.0879383,0.0001855999999999,53.2136,227.5613,47.8678,113.506,0.0030983,0.00049305,0.0,0 STARLINK-4210,1 52874U 22062AW  22279.25001157  .00049305  00000-0  30983-2 0  9997,2 52874  53.2136 227.5613 0001856  47.8678 113.5060 15.08793830 17787,6918.022,95.44,541.1709999999998,538.6030000000002,0.0
52874.0,STARLINK-4210,PAYLOAD,2022-10-06 14:00:01,15.08851597,0.0001631999999999,53.2135,226.0634,50.767,122.1863,-0.0023276,-0.00037153,0.0,0 STARLINK-4210,1 52874U 22062AW  22279.58334491 -.00037153  00000-0 -23276-2 0  9990,2 52874  53.2135 226.0634 0001632  50.7670 122.1863 15.08851597  1303,6917.845,95.437,540.839,538.581,0.0
52874.0,STARLINK-4210,PAYLOAD,2022-10-06 22:42:55,15.08850154,0.000155,53.2138,224.4333,53.1519,293.3011,0.00064,9.915e-05,0.0,0 STARLINK-4210,1 52874U 22062AW  22279.94646991  .00009915  00000-0  64000-3 0  9995,2 52874  53.2138 224.4333 0001550  53.1519 293.3011 15.08850154  1306,6917.849,95.437,540.7869999999998,538.6419999999998,0.0
52874.0,STARLINK-4210,PAYLOAD,2022-10-07 06:00:00,15.08847651,0.0001681,53.2137,223.0719,46.7203,149.4341,0.0005852,9.04e-05,0.0,0 STARLINK-4210,1 52874U 22062AW  22280.25001157  .00009040  00000-0  58520-3 0  9999,2 52874  53.2137 223.0719 0001681  46.7203 149.4341 15.08847651 17932,6917.857,95.437,540.885,538.559,0.0
52874.0,STARLINK-4210,PAYLOAD,2022-10-07 14:00:01,15.0884428,0.0001546,53.2136,221.5739,51.9514,155.8139,-0.00083323,-0.00013526,0.0,0 STARLINK-4210,1 52874U 22062AW  22280.58334491 -.00013526  00000-0 -83323-3 0  9990,2 52874  53.2136 221.5739 0001546  51.9514 155.8139 15.08844280  1304,6917.8669999999975,95.437,540.802,538.663,0.0
52874.0,STARLINK-4210,PAYLOAD,2022-10-07 22:00:00,15.08841036,0.0001621,53.2137,220.0777,57.6843,161.6682,-0.00078974,-0.00012835,0.0,0 STARLINK-4210,1 52874U 22062AW  22280.91667824 -.00012835  00000-0 -78974-3 0  9994,2 52874  53.2137 220.0777 0001621  57.6843 161.6682 15.08841036  1307,6917.877,95.437,540.864,538.621,0.0
52874.0,STARLINK-4210,PAYLOAD,2022-10-08 14:00:01,15.08813521,0.0001621,53.2135,217.0846,56.3517,186.1838,0.00030286,4.532e-05,0.0,0 STARLINK-4210,1 52874U 22062AW  22281.58334491  .00004532  00000-0  30286-3 0  9996,2 52874  53.2135 217.0846 0001621  56.3517 186.1838 15.08813521  1305,6917.9609999999975,95.439,540.948,538.705,0.0
52874.0,STARLINK-4210,PAYLOAD,2022-10-08 22:00:00,15.088359099999998,0.000167,53.2136,215.5885,60.5703,193.5232,0.00060917,9.419e-05,0.0,0 STARLINK-4210,1 52874U 22062AW  22281.91667824  .00009419  00000-0  60917-3 0  9995,2 52874  53.2136 215.5885 0001670  60.5703 193.5232 15.08835910  1306,6917.893,95.438,540.913,538.6030000000002,0.0
52874.0,STARLINK-4210,PAYLOAD,2022-10-09 06:00:00,15.08830995,0.0001735,53.2135,214.0935,52.4786,213.2173,0.0018612,0.0002945,0.0,0 STARLINK-4210,1 52874U 22062AW  22282.25001157  .00029450  00000-0  18612-2 0  9995,2 52874  53.2135 214.0935 0001735  52.4786 213.2173 15.08830995 18230,6917.908,95.438,540.9730000000002,538.573,0.0
52874.0,STARLINK-4210,PAYLOAD,2022-10-09 14:00:01,15.08851594,0.000151,53.2136,212.5953,55.5836,221.7117,6.797e-05,7.94e-06,0.0,0 STARLINK-4210,1 52874U 22062AW  22282.58334491  .00000794  00000-0  67970-4 0  9994,2 52874  53.2136 212.5953 0001510  55.5836 221.7117 15.08851594  1305,6917.845,95.437,540.755,538.665,0.0
52874.0,STARLINK-4210,PAYLOAD,2022-10-10 00:00:00,15.08877051,0.0001519,53.2136,210.7256,54.2064,327.5985,-0.0032524,-0.00051731,0.0,0 STARLINK-4210,1 52874U 22062AW  22283.00001157 -.00051731  00000-0 -32524-2 0  9996,2 52874  53.2136 210.7256 0001519  54.2064 327.5985 15.08877051  1303,6917.767,95.435,540.683,538.581,0.0
52874.0,STARLINK-4210,PAYLOAD,2022-10-10 08:00:01,15.08850022,0.0001614,53.2141,209.2288,49.4237,343.9975,-0.0014517999999999,-0.00023326,0.0,0 STARLINK-4210,1 52874U 22062AW  22283.33334491 -.00023326  00000-0 -14518-2 0  9994,2 52874  53.2141 209.2288 0001614  49.4237 343.9975 15.08850022 18398,6917.85,95.437,540.831,538.5980000000002,0.0
52874.0,STARLINK-4210,PAYLOAD,2022-10-10 14:00:01,15.0888073,0.0001599,53.2155,208.104,55.6392,256.4794,-0.011695,-0.00181954,0.0,0 STARLINK-4210,1 52874U 22062AW  22283.58334491 -.00181954  00000-0 -11695-1 0  9995,2 52874  53.2155 208.1040 0001599  55.6392 256.4794 15.08880730  1309,6917.755999999999,95.435,540.727,538.515,0.0
52874.0,STARLINK-4210,PAYLOAD,2022-10-10 22:00:01,15.08919015,0.0001557,53.2157,206.6074,55.4411,268.3362,-0.017628,-0.0027103,0.0,0 STARLINK-4210,1 52874U 22062AW  22283.91668981 -.00271030  00000-0 -17628-1 0  9993,2 52874  53.2157 206.6074 0001557  55.4411 268.3362 15.08919015  1307,6917.639,95.433,540.581,538.427,0.0
52874.0,STARLINK-4210,PAYLOAD,2022-10-11 14:00:01,15.08760751,0.0001404,53.217,203.6138,53.3382,293.5175,0.0075021999999999,0.00120902,0.0,0 STARLINK-4210,1 52874U 22062AW  22284.58334491  .00120902  00000-0  75022-2 0  9995,2 52874  53.2170 203.6138 0001404  53.3382 293.5175 15.08760751  1308,6918.123000000001,95.443,540.9590000000002,539.016,0.0
52874.0,STARLINK-4210,PAYLOAD,2022-10-11 22:00:00,15.08837174,0.0001429,53.2176,202.1171,54.0858,304.3237,-2.732300000000001e-05,-7.23e-06,0.0,0 STARLINK-4210,1 52874U 22062AW  22284.91667824 -.00000723  00000-0 -27323-4 0  9994,2 52874  53.2176 202.1171 0001429  54.0858 304.3237 15.08837174 18636,6917.889,95.438,540.743,538.765,0.0
52874.0,STARLINK-4210,PAYLOAD,2022-10-12 14:00:01,15.08834781,0.0001657,53.2175,199.1237,44.2168,337.3786,0.00022386,3.276e-05,0.0,0 STARLINK-4210,1 52874U 22062AW  22285.58334491  .00003276  00000-0  22386-3 0  9996,2 52874  53.2175 199.1237 0001657  44.2168 337.3786 15.08834781  1303,6917.896,95.438,540.908,538.615,0.0
